{
  "type": "FeatureCollection",
  "features": [
    {
      "type": "Feature",
      "properties": {
        "norad_id": 35594,
        "name": "COSMOS 2251 DEB",
        "group": "cosmos-2251-debris",
        "lat": -70.16517658384713,
        "lon": -9.41064038046078,
        "alt_km": 593.8134309139059,
        "timestamp": "2025-12-07T14:37:05.599880+00:00",
        "meta_object_name": "COSMOS 2251 DEB",
        "meta_object_id": "1993-036AMM",
        "meta_epoch": "2025-12-01T02:30:04.449024",
        "meta_mean_motion": 14.8736155,
        "meta_eccentricity": 0.00313469,
        "meta_inclination": 73.8065,
        "meta_ra_of_asc_node": 130.0573,
        "meta_arg_of_pericenter": 241.1394,
        "meta_mean_anomaly": 118.6638,
        "meta_ephemeris_type": 0,
        "meta_classification_type": "U",
        "meta_norad_cat_id": 35594,
        "meta_element_set_no": 999,
        "meta_rev_at_epoch": 88012,
        "meta_bstar": 0.00176297,
        "meta_mean_motion_dot": 0.00016075,
        "meta_mean_motion_ddot": 0,
        "tle_line1": "1 35594U 93036AMM 25335.10421816  .00016075  00000+0  17630-2 0  9995",
        "tle_line2": "2 35594  73.8065 130.0573 0031346 241.1394 118.6638 14.87361550880129"
      },
      "geometry": {
        "type": "Point",
        "coordinates": [
          -9.41064038046078,
          -70.16517658384713
        ]
      }
    },
    {
      "type": "Feature",
      "properties": {
        "norad_id": 35602,
        "name": "COSMOS 2251 DEB",
        "group": "cosmos-2251-debris",
        "lat": -37.84573154049198,
        "lon": 26.13268106644966,
        "alt_km": 420.25796467219516,
        "timestamp": "2025-12-07T14:37:05.599890+00:00",
        "meta_object_name": "COSMOS 2251 DEB",
        "meta_object_id": "1993-036AMV",
        "meta_epoch": "2025-12-06T20:30:24.199200",
        "meta_mean_motion": 15.34790574,
        "meta_eccentricity": 0.00905947,
        "meta_inclination": 73.9939,
        "meta_ra_of_asc_node": 194.8669,
        "meta_arg_of_pericenter": 261.9834,
        "meta_mean_anomaly": 110.4225,
        "meta_ephemeris_type": 0,
        "meta_classification_type": "U",
        "meta_norad_cat_id": 35602,
        "meta_element_set_no": 999,
        "meta_rev_at_epoch": 90001,
        "meta_bstar": 0.00070654037,
        "meta_mean_motion_dot": 0.00027322,
        "meta_mean_motion_ddot": 0,
        "tle_line1": "1 35602U 93036AMV 25340.85444675  .00027322  00000+0  70654-3 0  9994",
        "tle_line2": "2 35602  73.9939 194.8669 0090594 261.9834 110.4225 15.34790574900011"
      },
      "geometry": {
        "type": "Point",
        "coordinates": [
          26.13268106644966,
          -37.84573154049198
        ]
      }
    },
    {
      "type": "Feature",
      "properties": {
        "norad_id": 35605,
        "name": "COSMOS 2251 DEB",
        "group": "cosmos-2251-debris",
        "lat": -47.021201948051996,
        "lon": -30.396298682161582,
        "alt_km": 459.779469308407,
        "timestamp": "2025-12-07T14:37:05.599900+00:00",
        "meta_object_name": "COSMOS 2251 DEB",
        "meta_object_id": "1993-036AMY",
        "meta_epoch": "2025-12-06T07:28:08.851584",
        "meta_mean_motion": 15.30671694,
        "meta_eccentricity": 0.00298182,
        "meta_inclination": 73.8708,
        "meta_ra_of_asc_node": 350.4904,
        "meta_arg_of_pericenter": 287.5561,
        "meta_mean_anomaly": 72.2383,
        "meta_ephemeris_type": 0,
        "meta_classification_type": "U",
        "meta_norad_cat_id": 35605,
        "meta_element_set_no": 999,
        "meta_rev_at_epoch": 65873,
        "meta_bstar": 0.0096225277,
        "meta_mean_motion_dot": 0.00300684,
        "meta_mean_motion_ddot": 0,
        "tle_line1": "1 35605U 93036AMY 25340.31121356  .00300684  00000+0  96225-2 0  9992",
        "tle_line2": "2 35605  73.8708 350.4904 0029818 287.5561  72.2383 15.30671694658737"
      },
      "geometry": {
        "type": "Point",
        "coordinates": [
          -30.396298682161582,
          -47.021201948051996
        ]
      }
    },
    {
      "type": "Feature",
      "properties": {
        "norad_id": 35606,
        "name": "COSMOS 2251 DEB",
        "group": "cosmos-2251-debris",
        "lat": -68.91452685692194,
        "lon": -29.909585974192364,
        "alt_km": 920.4835083673597,
        "timestamp": "2025-12-07T14:37:05.599910+00:00",
        "meta_object_name": "COSMOS 2251 DEB",
        "meta_object_id": "1993-036AMZ",
        "meta_epoch": "2025-12-06T08:34:07.137120",
        "meta_mean_motion": 13.41197641,
        "meta_eccentricity": 0.04578135,
        "meta_inclination": 73.8109,
        "meta_ra_of_asc_node": 20.9706,
        "meta_arg_of_pericenter": 227.6256,
        "meta_mean_anomaly": 128.5237,
        "meta_ephemeris_type": 0,
        "meta_classification_type": "U",
        "meta_norad_cat_id": 35606,
        "meta_element_set_no": 999,
        "meta_rev_at_epoch": 60954,
        "meta_bstar": 0.0018916944,
        "meta_mean_motion_dot": 1.924e-05,
        "meta_mean_motion_ddot": 0,
        "tle_line1": "1 35606U 93036AMZ 25340.35702705  .00001924  00000+0  18917-2 0  9997",
        "tle_line2": "2 35606  73.8109  20.9706 0457813 227.6256 128.5237 13.41197641609541"
      },
      "geometry": {
        "type": "Point",
        "coordinates": [
          -29.909585974192364,
          -68.91452685692194
        ]
      }
    },
    {
      "type": "Feature",
      "properties": {
        "norad_id": 35611,
        "name": "COSMOS 2251 DEB",
        "group": "cosmos-2251-debris",
        "lat": 41.44438459707867,
        "lon": -5.3560971036991365,
        "alt_km": 658.1861238467609,
        "timestamp": "2025-12-07T14:37:05.599920+00:00",
        "meta_object_name": "COSMOS 2251 DEB",
        "meta_object_id": "1993-036ANE",
        "meta_epoch": "2025-12-06T00:29:55.775616",
        "meta_mean_motion": 14.72576947,
        "meta_eccentricity": 0.00221682,
        "meta_inclination": 74.0182,
        "meta_ra_of_asc_node": 192.3968,
        "meta_arg_of_pericenter": 266.2005,
        "meta_mean_anomaly": 93.6633,
        "meta_ephemeris_type": 0,
        "meta_classification_type": "U",
        "meta_norad_cat_id": 35611,
        "meta_element_set_no": 999,
        "meta_rev_at_epoch": 87191,
        "meta_bstar": 0.003154175,
        "meta_mean_motion_dot": 0.00020171,
        "meta_mean_motion_ddot": 0,
        "tle_line1": "1 35611U 93036ANE 25340.02078444  .00020171  00000+0  31542-2 0  9997",
        "tle_line2": "2 35611  74.0182 192.3968 0022168 266.2005  93.6633 14.72576947871916"
      },
      "geometry": {
        "type": "Point",
        "coordinates": [
          -5.3560971036991365,
          41.44438459707867
        ]
      }
    },
    {
      "type": "Feature",
      "properties": {
        "norad_id": 35614,
        "name": "COSMOS 2251 DEB",
        "group": "cosmos-2251-debris",
        "lat": 2.5915975389229904,
        "lon": -21.840155130512866,
        "alt_km": 726.003195346716,
        "timestamp": "2025-12-07T14:37:05.599930+00:00",
        "meta_object_name": "COSMOS 2251 DEB",
        "meta_object_id": "1993-036ANH",
        "meta_epoch": "2025-12-05T08:35:34.166976",
        "meta_mean_motion": 14.66905481,
        "meta_eccentricity": 0.00762912,
        "meta_inclination": 73.9585,
        "meta_ra_of_asc_node": 341.7759,
        "meta_arg_of_pericenter": 198.0285,
        "meta_mean_anomaly": 161.8178,
        "meta_ephemeris_type": 0,
        "meta_classification_type": "U",
        "meta_norad_cat_id": 35614,
        "meta_element_set_no": 999,
        "meta_rev_at_epoch": 87621,
        "meta_bstar": 0.0016552596,
        "meta_mean_motion_dot": 9.649e-05,
        "meta_mean_motion_ddot": 0,
        "tle_line1": "1 35614U 93036ANH 25339.35803434  .00009649  00000+0  16553-2 0  9991",
        "tle_line2": "2 35614  73.9585 341.7759 0076291 198.0285 161.8178 14.66905481876212"
      },
      "geometry": {
        "type": "Point",
        "coordinates": [
          -21.840155130512866,
          2.5915975389229904
        ]
      }
    },
    {
      "type": "Feature",
      "properties": {
        "norad_id": 35645,
        "name": "COSMOS 2251 DEB",
        "group": "cosmos-2251-debris",
        "lat": 58.27925377554771,
        "lon": -110.38652083143397,
        "alt_km": 771.0749533048647,
        "timestamp": "2025-12-07T14:37:05.599940+00:00",
        "meta_object_name": "COSMOS 2251 DEB",
        "meta_object_id": "1993-036ANL",
        "meta_epoch": "2025-12-06T14:48:53.385120",
        "meta_mean_motion": 14.45430489,
        "meta_eccentricity": 0.00694651,
        "meta_inclination": 73.9649,
        "meta_ra_of_asc_node": 99.1981,
        "meta_arg_of_pericenter": 257.6557,
        "meta_mean_anomaly": 101.6818,
        "meta_ephemeris_type": 0,
        "meta_classification_type": "U",
        "meta_norad_cat_id": 35645,
        "meta_element_set_no": 999,
        "meta_rev_at_epoch": 86683,
        "meta_bstar": 0.0035668156,
        "meta_mean_motion_dot": 0.00012932,
        "meta_mean_motion_ddot": 0,
        "tle_line1": "1 35645U 93036ANL 25340.61728455  .00012932  00000+0  35668-2 0  9992",
        "tle_line2": "2 35645  73.9649  99.1981 0069465 257.6557 101.6818 14.45430489866835"
      },
      "geometry": {
        "type": "Point",
        "coordinates": [
          -110.38652083143397,
          58.27925377554771
        ]
      }
    }
  ]
}